NORAD_CAT_ID,OBJECT_NAME,OBJECT_TYPE,EPOCH,MEAN_MOTION,ECCENTRICITY,INCLINATION,RA_OF_ASC_NODE,ARG_OF_PERICENTER,MEAN_ANOMALY,BSTAR,MEAN_MOTION_DOT,MEAN_MOTION_DDOT,TLE_LINE0,TLE_LINE1,TLE_LINE2,SEMIMAJOR_AXIS,PERIOD,APOGEE,PERIGEE,DECAYED
49438.0,STARLINK-3044,PAYLOAD,2022-12-25 21:24:29,15.08839754,0.0002631,53.217,60.5584,24.0493,336.0622,-4.5674e-05,-1.015e-05,0.0,0 STARLINK-3044,1 49438U 21104AG  22359.89200923 -.00001015  00000-0 -45674-4 0  9999,2 49438  53.2170  60.5584 0002631  24.0493 336.0622 15.08839754 62314,6917.880999999999,95.438,541.566,537.9259999999998,0.0
49438.0,STARLINK-3044,PAYLOAD,2022-12-26 02:10:39,15.0883293,0.0002594,53.2174,59.6662,23.6022,336.5089,-0.00011952,-2.19e-05,0.0,0 STARLINK-3044,1 49438U 21104AG  22360.09073441 -.00002190  00000-0 -11952-3 0  9992,2 49438  53.2174  59.6662 0002594  23.6022 336.5089 15.08832930 63418,6917.901999999999,95.438,541.562,537.972,0.0
49438.0,STARLINK-3044,PAYLOAD,2022-12-26 13:18:21,15.08839772,0.0002659,53.2173,57.5844,24.5635,335.5483,5.6099e-05,6.04e-06,0.0,0 STARLINK-3044,1 49438U 21104AG  22360.55441347  .00000604  00000-0  56099-4 0  9995,2 49438  53.2173  57.5844 0002659  24.5635 335.5483 15.08839772 62415,6917.880999999999,95.438,541.586,537.9069999999998,0.0
49438.0,STARLINK-3044,PAYLOAD,2022-12-27 02:01:25,15.08855477,0.0002251,53.2174,55.2057,20.6817,339.4266,0.00023529,3.46e-05,0.0,0 STARLINK-3044,1 49438U 21104AG  22361.08432341  .00003460  00000-0  23529-3 0  9992,2 49438  53.2174  55.2057 0002251  20.6817 339.4266 15.08855477 63563,6917.833000000001,95.437,541.255,538.141,0.0
49438.0,STARLINK-3044,PAYLOAD,2022-12-27 13:09:07,15.08853893,0.0002804,53.2175,53.1244,24.409,335.7034,0.00034441,5.199e-05,0.0,0 STARLINK-3044,1 49438U 21104AG  22361.54800524  .00005199  00000-0  34441-3 0  9991,2 49438  53.2175  53.1244 0002804  24.4090 335.7034 15.08853893 63638,6917.8380000000025,95.437,541.643,537.763,0.0
49438.0,STARLINK-3044,PAYLOAD,2022-12-28 03:27:35,15.08857736,0.0002847,53.217,50.4482,23.8511,336.2613,0.00034393,5.192e-05,0.0,0 STARLINK-3044,1 49438U 21104AG  22362.14415897  .00005192  00000-0  34393-3 0  9992,2 49438  53.2170  50.4482 0002847  23.8511 336.2613 15.08857736 62655,6917.826,95.436,541.661,537.722,0.0
49438.0,STARLINK-3044,PAYLOAD,2022-12-29 04:53:47,15.08827402,0.0002722,53.219,45.6893,21.0903,339.0201,-0.00014228,-2.552e-05,0.0,0 STARLINK-3044,1 49438U 21104AG  22363.20401811 -.00002552  00000-0 -14228-3 0  9995,2 49438  53.2190  45.6893 0002722  21.0903 339.0201 15.08827402 63883,6917.919,95.438,541.6669999999998,537.901,0.0
49438.0,STARLINK-3044,PAYLOAD,2022-12-29 09:39:57,15.08822701,0.0003072,53.219,44.7982,20.0219,340.0893,-0.00018029,-3.156e-05,0.0,0 STARLINK-3044,1 49438U 21104AG  22363.40274411 -.00003156  00000-0 -18029-3 0  9995,2 49438  53.2190  44.7982 0003072  20.0219 340.0893 15.08822701 62841,6917.933000000001,95.439,541.923,537.673,0.0
49438.0,STARLINK-3044,PAYLOAD,2022-12-30 04:44:33,15.08837665,0.0002798,53.2184,41.2293,24.8103,335.3023,-4.3256e-05,-9.77e-06,0.0,0 STARLINK-3044,1 49438U 21104AG  22364.19761461 -.00000977  00000-0 -43256-4 0  9997,2 49438  53.2184  41.2293 0002798  24.8103 335.3023 15.08837665 64039,6917.888000000001,95.438,541.688,537.817,0.0
49438.0,STARLINK-3044,PAYLOAD,2022-12-30 09:30:43,15.08843636,0.0002983,53.2185,40.3376,20.091,340.0199,1.8362e-05,4e-08,0.0,0 STARLINK-3044,1 49438U 21104AG  22364.39633102  .00000004  00000-0  18362-4 0  9998,2 49438  53.2185  40.3376 0002983  20.0910 340.0199 15.08843636 62997,6917.869000000002,95.437,541.798,537.6709999999998,0.0
49438.0,STARLINK-3044,PAYLOAD,2022-12-30 19:03:01,15.08849591,0.0002959,53.2183,38.5532,23.0447,337.0678,0.00024172,3.562e-05,0.0,0 STARLINK-3044,1 49438U 21104AG  22364.79376384  .00003562  00000-0  24172-3 0  9995,2 49438  53.2183  38.5532 0002959  23.0447 337.0678 15.08849591 64120,6917.851,95.437,541.763,537.669,0.0
49438.0,STARLINK-3044,PAYLOAD,2022-12-31 07:46:06,15.08861781,0.0003036,53.2179,36.1739,24.8647,335.2491,0.00067935,0.00010547,0.0,0 STARLINK-3044,1 49438U 21104AG  22365.32368896  .00010547  00000-0  67935-3 0  9999,2 49438  53.2179  36.1739 0003036  24.8647 335.2491 15.08861781 63134,6917.814,95.436,541.779,537.5790000000002,0.0
49438.0,STARLINK-3044,PAYLOAD,2022-12-31 18:53:48,15.08858755,0.000302,53.2181,34.0927,25.6608,334.4534,0.00013358,1.839e-05,0.0,0 STARLINK-3044,1 49438U 21104AG  22365.78736462  .00001839  00000-0  13358-3 0  9991,2 49438  53.2181  34.0927 0003020  25.6608 334.4534 15.08858755 64274,6917.823,95.436,541.7769999999998,537.599,0.0
49438.0,STARLINK-3044,PAYLOAD,2023-01-01 12:23:03,15.08824496,0.0002889,53.2174,30.8218,21.5025,338.6088,-0.00024946,-4.255e-05,0.0,0 STARLINK-3044,1 49438U 21104AG  23001.51601099 -.00004255  00000-0 -24946-3 0  9999,2 49438  53.2174  30.8218 0002889  21.5025 338.6088 15.08824496 64380,6917.928000000001,95.439,541.7909999999998,537.794,0.0
49438.0,STARLINK-3044,PAYLOAD,2023-01-01 18:44:36,15.08829372,0.0002917,53.2176,29.6319,20.7832,339.3278,-9.2182e-05,-1.755e-05,0.0,0 STARLINK-3044,1 49438U 21104AG  23001.78097303 -.00001755  00000-0 -92182-4 0  9995,2 49438  53.2176  29.6319 0002917  20.7832 339.3278 15.08829372 63352,6917.913000000001,95.438,541.7959999999998,537.76,0.0
49438.0,STARLINK-3044,PAYLOAD,2023-01-02 05:52:18,15.0882675,0.0002976,53.2171,27.5508,22.5582,337.5541,-0.00017116,-3.011e-05,0.0,0 STARLINK-3044,1 49438U 21104AG  23002.24465996 -.00003011  00000-0 -17116-3 0  9994,2 49438  53.2171  27.5508 0002976  22.5582 337.5541 15.08826750 63429,6917.920999999999,95.438,541.845,537.727,0.0
49438.0,STARLINK-3044,PAYLOAD,2023-01-02 18:35:23,15.08835901,0.0003061,53.218,25.1723,23.7905,336.3228,-4.087e-05,-9.39e-06,0.0,0 STARLINK-3044,1 49438U 21104AG  23002.77458213 -.00000939  00000-0 -40870-4 0  9996,2 49438  53.2180  25.1723 0003061  23.7905 336.3228 15.08835901 64574,6917.893,95.438,541.875,537.64,0.0
49438.0,STARLINK-3044,PAYLOAD,2023-01-03 12:04:39,15.08836573,0.0003018999999999,53.2176,21.9014,24.4943,335.6193,0.00035837,5.419e-05,0.0,0 STARLINK-3044,1 49438U 21104AG  23003.50322920  .00005419  00000-0  35837-3 0  9995,2 49438  53.2176  21.9014 0003019  24.4943 335.6193 15.08836573 63612,6917.891,95.438,541.844,537.6669999999998,0.0
49438.0,STARLINK-3044,PAYLOAD,2023-01-04 07:09:16,15.08847843,0.0003009,53.2171,18.3327,25.4426,334.6714,0.00042343,6.459e-05,0.0,0 STARLINK-3044,1 49438U 21104AG  23004.29810696  .00006459  00000-0  42343-3 0  9999,2 49438  53.2171  18.3327 0003009  25.4426 334.6714 15.08847843 64802,6917.856,95.437,541.803,537.64,0.0
49438.0,STARLINK-3044,PAYLOAD,2023-01-04 11:55:25,15.08855139,0.0003052,53.2172,17.4411,24.4058,335.7078,0.00074562,0.00011604,0.0,0 STARLINK-3044,1 49438U 21104AG  23004.49682540  .00011604  00000-0  74562-3 0  9992,2 49438  53.2172  17.4411 0003052  24.4058 335.7078 15.08855139 63761,6917.834,95.437,541.81,537.5880000000002,0.0
49438.0,STARLINK-3044,PAYLOAD,2023-01-04 18:16:58,15.08840467,0.0002926,53.2173,16.2511,25.6473,334.4664,0.00021274,3.099e-05,0.0,0 STARLINK-3044,1 49438U 21104AG  23004.76178939  .00003099  00000-0  21274-3 0  9995,2 49438  53.2173  16.2511 0002926  25.6473 334.4664 15.08840467 64871,6917.879,95.438,541.768,537.72,0.0
49438.0,STARLINK-3044,PAYLOAD,2023-01-05 07:00:03,15.08870928,0.0003731999999999,53.2175,13.8727,25.0709,335.0464,0.00094922,0.00014865,0.0,0 STARLINK-3044,1 49438U 21104AG  23005.29170387  .00014865  00000-0  94922-3 0  9996,2 49438  53.2175  13.8727 0003732  25.0709 335.0464 15.08870928 64956,6917.786,95.436,542.2330000000002,537.069,0.0
49438.0,STARLINK-3044,PAYLOAD,2023-01-05 11:46:13,15.08843546,0.0003373999999999,53.2169,12.9793,30.5811,329.5377,0.0003115,4.673e-05,0.0,0 STARLINK-3044,1 49438U 21104AG  23005.49043226  .00004673  00000-0  31150-3 0  9999,2 49438  53.2169  12.9793 0003374  30.5811 329.5377 15.08843546 64989,6917.87,95.437,542.069,537.4,0.0
49438.0,STARLINK-3044,PAYLOAD,2023-01-06 06:50:51,15.08834549,0.0003087,53.2163,9.4097,34.2476,325.8715,0.00013206,1.814e-05,0.0,0 STARLINK-3044,1 49438U 21104AG  23006.28531714  .00001814  00000-0  13206-3 0  9997,2 49438  53.2163   9.4097 0003087  34.2476 325.8715 15.08834549 65103,6917.897,95.438,541.898,537.626,0.0
49438.0,STARLINK-3044,PAYLOAD,2023-01-06 10:01:37,15.08838857,0.0003054,53.2165,8.8151,33.516,326.6025,0.000144,2.004e-05,0.0,0 STARLINK-3044,1 49438U 21104AG  23006.41779610  .00002004  00000-0  14400-3 0  9990,2 49438  53.2165   8.8151 0003054  33.5160 326.6025 15.08838857 64057,6917.884,95.438,541.862,537.636,0.0
49438.0,STARLINK-3044,PAYLOAD,2023-01-07 06:41:38,15.08845327,0.0003229,53.2156,4.9539,46.7578,313.3683,0.00015768,2.222e-05,0.0,0 STARLINK-3044,1 49438U 21104AG  23007.27891673  .00002222  00000-0  15768-3 0  9999,2 49438  53.2156   4.9539 0003229  46.7578 313.3683 15.08845327 64184,6917.864000000001,95.437,541.9630000000002,537.495,0.0
49438.0,STARLINK-3044,PAYLOAD,2023-01-07 22:35:29,15.08841072,0.0002823,53.2139,1.9792,47.041,313.0818,0.0001374,1.899e-05,0.0,0 STARLINK-3044,1 49438U 21104AG  23007.94131776  .00001899  00000-0  13740-3 0  9991,2 49438  53.2139   1.9792 0002823  47.0410 313.0818 15.08841072 64282,6917.877,95.437,541.695,537.789,0.0
49438.0,STARLINK-3044,PAYLOAD,2023-01-08 06:32:25,15.08846496,0.0002614,53.215,0.4905,27.2499,332.8629,0.00019466,2.812e-05,0.0,0 STARLINK-3044,1 49438U 21104AG  23008.27251717  .00002812  00000-0  19466-3 0  9993,2 49438  53.2150   0.4905 0002614  27.2499 332.8629 15.08846496 65409,6917.861,95.437,541.534,537.9169999999998,0.0
49438.0,STARLINK-3044,PAYLOAD,2023-01-08 09:43:11,15.08849301,0.0002653,53.2154,359.8951,40.9246,319.1945,0.00022997,3.374e-05,0.0,0 STARLINK-3044,1 49438U 21104AG  23008.40499485  .00003374  00000-0  22997-3 0  9991,2 49438  53.2154 359.8951 0002653  40.9246 319.1945 15.08849301 64350,6917.852,95.437,541.552,537.882,0.0
